start=new Date('2023-04-26T00:00:00.000Z').valueOf();
sats=[{"FILE":"3894092","MEAN_MOTION":"15.08909136","ELEMENT_SET_NO":"999","OBJECT_NAME":"STARLINK-3387","TLE_LINE1":"1 51125U 22005X   23115.11038407  .00012505  00000-0  80086-3 0  9997","TIME_SYSTEM":"UTC","MEAN_MOTION_DOT":"0.00012505","EPOCH":"2023-04-25T02:38:57.183648","APOAPSIS":"540.548","MEAN_ANOMALY":"282.2940","SEMIMAJOR_AXIS":"6917.669","PERIOD":"95.433","RA_OF_ASC_NODE":"330.8730","NORAD_CAT_ID":"51125","REV_AT_EPOCH":"7027","ECCENTRICITY":"0.00014660","BSTAR":"0.00080086000000","SITE":"AFETR","TLE_LINE2":"2 51125  53.2152 330.8730 0001466  77.8216 282.2940 15.08909136 70271","CENTER_NAME":"EARTH","MEAN_ELEMENT_THEORY":"SGP4","EPHEMERIS_TYPE":"0","CLASSIFICATION_TYPE":"U","COUNTRY_CODE":"US","DECAY_DATE":null,"REF_FRAME":"TEME","LAUNCH_DATE":"2022-01-19","ARG_OF_PERICENTER":"77.8216","PERIAPSIS":"538.520","MEAN_MOTION_DDOT":"0.0000000000000","GP_ID":"230743288","OBJECT_ID":"2022-005X","RCS_SIZE":"LARGE","OBJECT_TYPE":"PAYLOAD","INCLINATION":"53.2152"},{"PERIAPSIS":"539.177","LAUNCH_DATE":"2022-01-19","ARG_OF_PERICENTER":"102.3421","GP_ID":"230744039","MEAN_MOTION_DDOT":"0.0000000000000","INCLINATION":"53.2160","RCS_SIZE":"LARGE","OBJECT_ID":"2022-005Y","OBJECT_TYPE":"PAYLOAD","REV_AT_EPOCH":"7036","NORAD_CAT_ID":"51126","ECCENTRICITY":"0.00011160","BSTAR":"-0.00247720000000","CENTER_NAME":"EARTH","TLE_LINE2":"2 51126  53.2160 328.7594 0001116 102.3421 257.7696 15.08773378 70361","EPHEMERIS_TYPE":"0","MEAN_ELEMENT_THEORY":"SGP4","CLASSIFICATION_TYPE":"U","SITE":"AFETR","COUNTRY_CODE":"US","REF_FRAME":"TEME","DECAY_DATE":null,"TIME_SYSTEM":"UTC","MEAN_MOTION_DOT":"-0.00039425","EPOCH":"2023-04-25T13:57:18.963072","MEAN_ANOMALY":"257.7696","SEMIMAJOR_AXIS":"6918.084","PERIOD":"95.442","APOAPSIS":"540.721","RA_OF_ASC_NODE":"328.7594","FILE":"3894092","MEAN_MOTION":"15.08773378","ELEMENT_SET_NO":"999","OBJECT_NAME":"STARLINK-3386","TLE_LINE1":"1 51126U 22005Y   23115.58146948 -.00039425  00000-0 -24772-2 0  9990"},{"OBJECT_NAME":"STARLINK-3370","ELEMENT_SET_NO":"999","TLE_LINE1":"1 51127U 22005Z   23115.57779161 -.00031334  00000-0 -19623-2 0  9999","MEAN_MOTION":"15.08784265","FILE":"3894092","RA_OF_ASC_NODE":"328.7747","APOAPSIS":"540.740","SEMIMAJOR_AXIS":"6918.051","MEAN_ANOMALY":"289.5119","PERIOD":"95.441","EPOCH":"2023-04-25T13:52:01.195104","TIME_SYSTEM":"UTC","MEAN_MOTION_DOT":"-0.00031334","COUNTRY_CODE":"US","REF_FRAME":"TEME","DECAY_DATE":null,"SITE":"AFETR","CENTER_NAME":"EARTH","TLE_LINE2":"2 51127  53.2158 328.7747 0001192  70.6002 289.5119 15.08784265 70354","CLASSIFICATION_TYPE":"U","MEAN_ELEMENT_THEORY":"SGP4","EPHEMERIS_TYPE":"0","BSTAR":"-0.00196230000000","ECCENTRICITY":"0.00011920","NORAD_CAT_ID":"51127","REV_AT_EPOCH":"7035","RCS_SIZE":"LARGE","OBJECT_ID":"2022-005Z","OBJECT_TYPE":"PAYLOAD","INCLINATION":"53.2158","MEAN_MOTION_DDOT":"0.0000000000000","GP_ID":"230742788","LAUNCH_DATE":"2022-01-19","ARG_OF_PERICENTER":"70.6002","PERIAPSIS":"539.091"},{"FILE":"3894092","OBJECT_NAME":"STARLINK-3400","ELEMENT_SET_NO":"999","TLE_LINE1":"1 51128U 22005AA  23114.89601006  .00009871  00000-0  63658-3 0  9993","MEAN_MOTION":"15.08888643","EPOCH":"2023-04-24T21:30:15.269184","TIME_SYSTEM":"UTC","MEAN_MOTION_DOT":"0.00009871","RA_OF_ASC_NODE":"331.8263","APOAPSIS":"540.505","MEAN_ANOMALY":"271.1703","SEMIMAJOR_AXIS":"6917.732","PERIOD":"95.434","BSTAR":"0.00063658000000","ECCENTRICITY":"0.00013130","NORAD_CAT_ID":"51128","REV_AT_EPOCH":"7024","COUNTRY_CODE":"US","REF_FRAME":"TEME","DECAY_DATE":null,"SITE":"AFETR","TLE_LINE2":"2 51128  53.2176 331.8263 0001313  88.9440 271.1703 15.08888643 70245","CENTER_NAME":"EARTH","CLASSIFICATION_TYPE":"U","MEAN_ELEMENT_THEORY":"SGP4","EPHEMERIS_TYPE":"0","LAUNCH_DATE":"2022-01-19","ARG_OF_PERICENTER":"88.9440","PERIAPSIS":"538.688","OBJECT_ID":"2022-005AA","RCS_SIZE":"LARGE","OBJECT_TYPE":"PAYLOAD","INCLINATION":"53.2176","MEAN_MOTION_DDOT":"0.0000000000000","GP_ID":"230742538"},{"FILE":"3894092","ELEMENT_SET_NO":"999","OBJECT_NAME":"STARLINK-3396","TLE_LINE1":"1 51129U 22005AB  23114.99169424  .00027932  00000-0  17627-2 0  9990","MEAN_MOTION":"15.08911967","EPOCH":"2023-04-24T23:48:02.382336","TIME_SYSTEM":"UTC","MEAN_MOTION_DOT":"0.00027932","RA_OF_ASC_NODE":"331.4255","MEAN_ANOMALY":"270.5747","SEMIMAJOR_AXIS":"6917.660","PERIOD":"95.433","APOAPSIS":"540.334","BSTAR":"0.00176270000000","ECCENTRICITY":"0.00011690","REV_AT_EPOCH":"7026","NORAD_CAT_ID":"51129","COUNTRY_CODE":"US","DECAY_DATE":null,"REF_FRAME":"TEME","TLE_LINE2":"2 51129  53.2165 331.4255 0001169  89.5379 270.5747 15.08911967 70267","CENTER_NAME":"EARTH","MEAN_ELEMENT_THEORY":"SGP4","CLASSIFICATION_TYPE":"U","EPHEMERIS_TYPE":"0","SITE":"AFETR","PERIAPSIS":"538.717","LAUNCH_DATE":"2022-01-19","ARG_OF_PERICENTER":"89.5379","INCLINATION":"53.2165","OBJECT_ID":"2022-005AB","RCS_SIZE":"LARGE","OBJECT_TYPE":"PAYLOAD","GP_ID":"230743789","MEAN_MOTION_DDOT":"0.0000000000000"},{"ECCENTRICITY":"0.00010550","BSTAR":"0.00058853000000","NORAD_CAT_ID":"51130","REV_AT_EPOCH":"7026","COUNTRY_CODE":"US","REF_FRAME":"TEME","DECAY_DATE":null,"SITE":"AFETR","CENTER_NAME":"EARTH","TLE_LINE2":"2 51130  53.2160 331.1803 0001055 100.5734 259.5377 15.08878131 70264","EPHEMERIS_TYPE":"0","MEAN_ELEMENT_THEORY":"SGP4","CLASSIFICATION_TYPE":"U","LAUNCH_DATE":"2022-01-19","ARG_OF_PERICENTER":"100.5734","PERIAPSIS":"538.899","OBJECT_ID":"2022-005AC","RCS_SIZE":"LARGE","OBJECT_TYPE":"PAYLOAD","INCLINATION":"53.2160","MEAN_MOTION_DDOT":"0.0000000000000","GP_ID":"230743539","FILE":"3894092","OBJECT_NAME":"STARLINK-3395","ELEMENT_SET_NO":"999","TLE_LINE1":"1 51130U 22005AC  23115.03952391  .00009101  00000-0  58853-3 0  9996","MEAN_MOTION":"15.08878131","EPOCH":"2023-04-25T00:56:54.865824","TIME_SYSTEM":"UTC","MEAN_MOTION_DOT":"0.00009101","RA_OF_ASC_NODE":"331.1803","APOAPSIS":"540.359","SEMIMAJOR_AXIS":"6917.764","MEAN_ANOMALY":"259.5377","PERIOD":"95.435"},{"MEAN_MOTION_DOT":"0.00018938","TIME_SYSTEM":"UTC","EPOCH":"2023-04-24T23:10:56.307072","APOAPSIS":"540.426","PERIOD":"95.435","MEAN_ANOMALY":"262.5519","SEMIMAJOR_AXIS":"6917.733","RA_OF_ASC_NODE":"331.5104","FILE":"3894092","MEAN_MOTION":"15.08888198","TLE_LINE1":"1 51131U 22005AD  23114.96592948  .00018938  00000-0  12032-2 0  9992","ELEMENT_SET_NO":"999","OBJECT_NAME":"STARLINK-3388","ARG_OF_PERICENTER":"97.5609","LAUNCH_DATE":"2022-01-19","PERIAPSIS":"538.770","MEAN_MOTION_DDOT":"0.0000000000000","GP_ID":"230742288","OBJECT_TYPE":"PAYLOAD","RCS_SIZE":"LARGE","OBJECT_ID":"2022-005AD","INCLINATION":"53.2162","NORAD_CAT_ID":"51131","REV_AT_EPOCH":"7025","ECCENTRICITY":"0.00011970","BSTAR":"0.00120320000000","SITE":"AFETR","MEAN_ELEMENT_THEORY":"SGP4","EPHEMERIS_TYPE":"0","CLASSIFICATION_TYPE":"U","TLE_LINE2":"2 51131  53.2162 331.5104 0001197  97.5609 262.5519 15.08888198 70253","CENTER_NAME":"EARTH","DECAY_DATE":null,"REF_FRAME":"TEME","COUNTRY_CODE":"US"},{"MEAN_MOTION":"15.08820041","TLE_LINE1":"1 51132U 22005AE  23115.56578336 -.00008041  00000-0 -48797-3 0  9999","OBJECT_NAME":"STARLINK-3393","ELEMENT_SET_NO":"999","FILE":"3894131","PERIOD":"95.439","MEAN_ANOMALY":"255.4178","SEMIMAJOR_AXIS":"6917.941","APOAPSIS":"540.657","RA_OF_ASC_NODE":"328.8176","MEAN_MOTION_DOT":"-0.00008041","TIME_SYSTEM":"UTC","EPOCH":"2023-04-25T13:34:43.682304","EPHEMERIS_TYPE":"0","CLASSIFICATION_TYPE":"U","MEAN_ELEMENT_THEORY":"SGP4","TLE_LINE2":"2 51132  53.2165 328.8176 0001229 104.6951 255.4178 15.08820041 71460","CENTER_NAME":"EARTH","SITE":"AFETR","REF_FRAME":"TEME","DECAY_DATE":null,"COUNTRY_CODE":"US","REV_AT_EPOCH":"7146","NORAD_CAT_ID":"51132","BSTAR":"-0.00048797000000","ECCENTRICITY":"0.00012290","GP_ID":"230747423","MEAN_MOTION_DDOT":"0.0000000000000","INCLINATION":"53.2165","OBJECT_TYPE":"PAYLOAD","RCS_SIZE":"LARGE","OBJECT_ID":"2022-005AE","PERIAPSIS":"538.956","ARG_OF_PERICENTER":"104.6951","LAUNCH_DATE":"2022-01-19"},{"ARG_OF_PERICENTER":"61.0453","LAUNCH_DATE":"2022-01-19","PERIAPSIS":"539.048","OBJECT_TYPE":"PAYLOAD","OBJECT_ID":"2022-005AF","RCS_SIZE":"LARGE","INCLINATION":"53.2175","MEAN_MOTION_DDOT":"0.0000000000000","GP_ID":"230747045","BSTAR":"0.00091855000000","ECCENTRICITY":"0.00008510","NORAD_CAT_ID":"51133","REV_AT_EPOCH":"7136","REF_FRAME":"TEME","DECAY_DATE":null,"COUNTRY_CODE":"US","SITE":"AFETR","MEAN_ELEMENT_THEORY":"SGP4","EPHEMERIS_TYPE":"0","CLASSIFICATION_TYPE":"U","CENTER_NAME":"EARTH","TLE_LINE2":"2 51133  53.2175 331.8424 0000851  61.0453 299.0625 15.08875639 71368","EPOCH":"2023-04-24T21:24:58.725504","MEAN_MOTION_DOT":"0.00014375","TIME_SYSTEM":"UTC","RA_OF_ASC_NODE":"331.8424","APOAPSIS":"540.225","PERIOD":"95.435","SEMIMAJOR_AXIS":"6917.771","MEAN_ANOMALY":"299.0625","FILE":"3894131","TLE_LINE1":"1 51133U 22005AF  23114.89234636  .00014375  00000-0  91855-3 0  9995","OBJECT_NAME":"STARLINK-3356","ELEMENT_SET_NO":"999","MEAN_MOTION":"15.08875639"},{"APOAPSIS":"540.707","PERIOD":"95.435","SEMIMAJOR_AXIS":"6917.763","MEAN_ANOMALY":"287.6683","RA_OF_ASC_NODE":"321.0920","MEAN_MOTION_DOT":"0.00009935","TIME_SYSTEM":"UTC","EPOCH":"2023-04-25T01:26:07.074240","MEAN_MOTION":"15.08878295","TLE_LINE1":"1 51134U 22005AG  23115.05980410  .00009935  00000-0  64075-3 0  9993","OBJECT_NAME":"STARLINK-3183","ELEMENT_SET_NO":"999","FILE":"3894092","MEAN_MOTION_DDOT":"0.0000000000000","GP_ID":"230744040","OBJECT_TYPE":"PAYLOAD","OBJECT_ID":"2022-005AG","RCS_SIZE":"LARGE","INCLINATION":"53.2157","ARG_OF_PERICENTER":"72.4480","LAUNCH_DATE":"2022-01-19","PERIAPSIS":"538.550","SITE":"AFETR","MEAN_ELEMENT_THEORY":"SGP4","EPHEMERIS_TYPE":"0","CLASSIFICATION_TYPE":"U","TLE_LINE2":"2 51134  53.2157 321.0920 0001559  72.4480 287.6683 15.08878295 70427","CENTER_NAME":"EARTH","REF_FRAME":"TEME","DECAY_DATE":null,"COUNTRY_CODE":"US","NORAD_CAT_ID":"51134","REV_AT_EPOCH":"7042","ECCENTRICITY":"0.00015590","BSTAR":"0.00064075000000"}];
